COSMOS 2058             
1 20465U 90010A   26075.99717432  .00003490  00000+0  20503-3 0  9997
2 20465  82.4667  40.2265 0008329 319.4031  40.6577 15.11388647943340
SL-14 R/B               
1 20466U 90010B   26076.03855970  .00000414  00000+0  47292-4 0  9992
2 20466  82.4987 260.4834 0018325 276.2285  83.6842 14.83575507929574
SL-14 R/B               
1 20511U 90018B   26075.86092756  .00000458  00000+0  54434-4 0  9990
2 20511  82.5215 216.3868 0017554  70.3986 289.9121 14.82152756923640
HST                     
1 20580U 90037B   26076.05470114  .00006491  00000+0  21208-3 0  9992
2 20580  28.4724 349.7537 0001684 201.5837 158.4688 15.29603902774440
SL-16 R/B               
1 20625U 90046B   26076.04914593  .00000036  00000+0  43025-4 0  9996
2 20625  70.9974 282.4575 0016160 289.7925  70.1455 14.15011203849430
COSMOS 2084             
1 20663U 90055A   26076.02743718  .00001858  00000+0  14159-3 0  9993
2 20663  62.7909 310.5517 0015894 192.0451 168.0271 15.05692999937428
SL-6 R/B(2)             
1 20666U 90055D   26076.15313693  .00001799  00000+0  14460-3 0  9994
2 20666  62.7822 228.4681 0025998 348.8451  11.2068 15.03632011939311
SL-8 R/B                
1 20775U 90078B   26076.16806456  .00011437  00000+0  33737-3 0  9993
2 20775  82.9000 244.5828 0360580 348.8252  10.5102 14.89314803810413
SL-8 R/B                
1 21088U 91006B   26075.98319177  .00000072  00000+0  57084-4 0  9996
2 21088  82.9461 164.6239 0022644  18.4665 154.4758 13.77495227765076
OKEAN-3                 
1 21397U 91039A   26075.66091151  .00002669  00000+0  18661-3 0  9990
2 21397  82.5201 330.0910 0013257 311.3298  48.6787 15.04858315866081
COSMOS 2151             
1 21422U 91042A   26076.15408321  .00001886  00000+0  14880-3 0  9998
2 21422  82.4929  76.4732 0013459  40.8247 319.3982 15.00137297864315
SL-14 R/B               
1 21423U 91042B   26076.11803582  .00000450  00000+0  53927-4 0  9995
2 21423  82.4937 213.2168 0016239 212.5659 147.4555 14.81837504854178
