CCSDS_OMM_VERS = 2.0
CREATION_DATE  = 
ORIGINATOR     = 

OBJECT_NAME    = COSMOS 2058
OBJECT_ID      = 1990-010A
CENTER_NAME    = EARTH
REF_FRAME      = TEME
TIME_SYSTEM    = UTC
MEAN_ELEMENT_THEORY = SGP/SGP4

EPOCH          = 2026-03-16T23:55:55.861248
MEAN_MOTION    = 15.11388647
ECCENTRICITY   = .0008329
INCLINATION    = 82.4667
RA_OF_ASC_NODE = 40.2265
ARG_OF_PERICENTER = 319.4031
MEAN_ANOMALY   = 40.6577

EPHEMERIS_TYPE = 0
CLASSIFICATION_TYPE = U
NORAD_CAT_ID   = 20465
ELEMENT_SET_NO = 999
REV_AT_EPOCH   = 94334
BSTAR          = .20503E-3
MEAN_MOTION_DOT = .349E-4
MEAN_MOTION_DDOT = 0

CCSDS_OMM_VERS = 2.0
CREATION_DATE  = 
ORIGINATOR     = 

OBJECT_NAME    = SL-14 R/B
OBJECT_ID      = 1990-010B
CENTER_NAME    = EARTH
REF_FRAME      = TEME
TIME_SYSTEM    = UTC
MEAN_ELEMENT_THEORY = SGP/SGP4

EPOCH          = 2026-03-17T00:55:31.558080
MEAN_MOTION    = 14.83575507
ECCENTRICITY   = .0018325
INCLINATION    = 82.4987
RA_OF_ASC_NODE = 260.4834
ARG_OF_PERICENTER = 276.2285
MEAN_ANOMALY   = 83.6842

EPHEMERIS_TYPE = 0
CLASSIFICATION_TYPE = U
NORAD_CAT_ID   = 20466
ELEMENT_SET_NO = 999
REV_AT_EPOCH   = 92957
BSTAR          = .47292E-4
MEAN_MOTION_DOT = .414E-5
MEAN_MOTION_DDOT = 0

CCSDS_OMM_VERS = 2.0
CREATION_DATE  = 
ORIGINATOR     = 

OBJECT_NAME    = SL-14 R/B
OBJECT_ID      = 1990-018B
CENTER_NAME    = EARTH
REF_FRAME      = TEME
TIME_SYSTEM    = UTC
MEAN_ELEMENT_THEORY = SGP/SGP4

EPOCH          = 2026-03-16T20:39:44.141184
MEAN_MOTION    = 14.82152756
ECCENTRICITY   = .0017554
INCLINATION    = 82.5215
RA_OF_ASC_NODE = 216.3868
ARG_OF_PERICENTER = 70.3986
MEAN_ANOMALY   = 289.9121

EPHEMERIS_TYPE = 0
CLASSIFICATION_TYPE = U
NORAD_CAT_ID   = 20511
ELEMENT_SET_NO = 999
REV_AT_EPOCH   = 92364
BSTAR          = .54434E-4
MEAN_MOTION_DOT = .458E-5
MEAN_MOTION_DDOT = 0

CCSDS_OMM_VERS = 2.0
CREATION_DATE  = 
ORIGINATOR     = 

OBJECT_NAME    = HST
OBJECT_ID      = 1990-037B
CENTER_NAME    = EARTH
REF_FRAME      = TEME
TIME_SYSTEM    = UTC
MEAN_ELEMENT_THEORY = SGP/SGP4

EPOCH          = 2026-03-17T01:18:46.178496
MEAN_MOTION    = 15.29603902
ECCENTRICITY   = .0001684
INCLINATION    = 28.4724
RA_OF_ASC_NODE = 349.7537
ARG_OF_PERICENTER = 201.5837
MEAN_ANOMALY   = 158.4688

EPHEMERIS_TYPE = 0
CLASSIFICATION_TYPE = U
NORAD_CAT_ID   = 20580
ELEMENT_SET_NO = 999
REV_AT_EPOCH   = 77444
BSTAR          = .21208E-3
MEAN_MOTION_DOT = .6491E-4
MEAN_MOTION_DDOT = 0

CCSDS_OMM_VERS = 2.0
CREATION_DATE  = 
ORIGINATOR     = 

OBJECT_NAME    = SL-16 R/B
OBJECT_ID      = 1990-046B
CENTER_NAME    = EARTH
REF_FRAME      = TEME
TIME_SYSTEM    = UTC
MEAN_ELEMENT_THEORY = SGP/SGP4

EPOCH          = 2026-03-17T01:10:46.208352
MEAN_MOTION    = 14.15011203
ECCENTRICITY   = .001616
INCLINATION    = 70.9974
RA_OF_ASC_NODE = 282.4575
ARG_OF_PERICENTER = 289.7925
MEAN_ANOMALY   = 70.1455

EPHEMERIS_TYPE = 0
CLASSIFICATION_TYPE = U
NORAD_CAT_ID   = 20625
ELEMENT_SET_NO = 999
REV_AT_EPOCH   = 84943
BSTAR          = .43025E-4
MEAN_MOTION_DOT = .36E-6
MEAN_MOTION_DDOT = 0

CCSDS_OMM_VERS = 2.0
CREATION_DATE  = 
ORIGINATOR     = 

OBJECT_NAME    = COSMOS 2084
OBJECT_ID      = 1990-055A
CENTER_NAME    = EARTH
REF_FRAME      = TEME
TIME_SYSTEM    = UTC
MEAN_ELEMENT_THEORY = SGP/SGP4

EPOCH          = 2026-03-17T00:39:30.572352
MEAN_MOTION    = 15.05692999
ECCENTRICITY   = .0015894
INCLINATION    = 62.7909
RA_OF_ASC_NODE = 310.5517
ARG_OF_PERICENTER = 192.0451
MEAN_ANOMALY   = 168.0271

EPHEMERIS_TYPE = 0
CLASSIFICATION_TYPE = U
NORAD_CAT_ID   = 20663
ELEMENT_SET_NO = 999
REV_AT_EPOCH   = 93742
BSTAR          = .14159E-3
MEAN_MOTION_DOT = .1858E-4
MEAN_MOTION_DDOT = 0

CCSDS_OMM_VERS = 2.0
CREATION_DATE  = 
ORIGINATOR     = 

OBJECT_NAME    = SL-6 R/B(2)
OBJECT_ID      = 1990-055D
CENTER_NAME    = EARTH
REF_FRAME      = TEME
TIME_SYSTEM    = UTC
MEAN_ELEMENT_THEORY = SGP/SGP4

EPOCH          = 2026-03-17T03:40:31.030752
MEAN_MOTION    = 15.03632011
ECCENTRICITY   = .0025998
INCLINATION    = 62.7822
RA_OF_ASC_NODE = 228.4681
ARG_OF_PERICENTER = 348.8451
MEAN_ANOMALY   = 11.2068

EPHEMERIS_TYPE = 0
CLASSIFICATION_TYPE = U
NORAD_CAT_ID   = 20666
ELEMENT_SET_NO = 999
REV_AT_EPOCH   = 93931
BSTAR          = .1446E-3
MEAN_MOTION_DOT = .1799E-4
MEAN_MOTION_DDOT = 0

CCSDS_OMM_VERS = 2.0
CREATION_DATE  = 
ORIGINATOR     = 

OBJECT_NAME    = SL-8 R/B
OBJECT_ID      = 1990-078B
CENTER_NAME    = EARTH
REF_FRAME      = TEME
TIME_SYSTEM    = UTC
MEAN_ELEMENT_THEORY = SGP/SGP4

EPOCH          = 2026-03-17T04:02:00.777984
MEAN_MOTION    = 14.89314803
ECCENTRICITY   = .036058
INCLINATION    = 82.9000
RA_OF_ASC_NODE = 244.5828
ARG_OF_PERICENTER = 348.8252
MEAN_ANOMALY   = 10.5102

EPHEMERIS_TYPE = 0
CLASSIFICATION_TYPE = U
NORAD_CAT_ID   = 20775
ELEMENT_SET_NO = 999
REV_AT_EPOCH   = 81041
BSTAR          = .33737E-3
MEAN_MOTION_DOT = .11437E-3
MEAN_MOTION_DDOT = 0

CCSDS_OMM_VERS = 2.0
CREATION_DATE  = 
ORIGINATOR     = 

OBJECT_NAME    = SL-8 R/B
OBJECT_ID      = 1991-006B
CENTER_NAME    = EARTH
REF_FRAME      = TEME
TIME_SYSTEM    = UTC
MEAN_ELEMENT_THEORY = SGP/SGP4

EPOCH          = 2026-03-16T23:35:47.768928
MEAN_MOTION    = 13.77495227
ECCENTRICITY   = .0022644
INCLINATION    = 82.9461
RA_OF_ASC_NODE = 164.6239
ARG_OF_PERICENTER = 18.4665
MEAN_ANOMALY   = 154.4758

EPHEMERIS_TYPE = 0
CLASSIFICATION_TYPE = U
NORAD_CAT_ID   = 21088
ELEMENT_SET_NO = 999
REV_AT_EPOCH   = 76507
BSTAR          = .57084E-4
MEAN_MOTION_DOT = .72E-6
MEAN_MOTION_DDOT = 0

CCSDS_OMM_VERS = 2.0
CREATION_DATE  = 
ORIGINATOR     = 

OBJECT_NAME    = OKEAN-3
OBJECT_ID      = 1991-039A
CENTER_NAME    = EARTH
REF_FRAME      = TEME
TIME_SYSTEM    = UTC
MEAN_ELEMENT_THEORY = SGP/SGP4

EPOCH          = 2026-03-16T15:51:42.754464
MEAN_MOTION    = 15.04858315
ECCENTRICITY   = .0013257
INCLINATION    = 82.5201
RA_OF_ASC_NODE = 330.0910
ARG_OF_PERICENTER = 311.3298
MEAN_ANOMALY   = 48.6787

EPHEMERIS_TYPE = 0
CLASSIFICATION_TYPE = U
NORAD_CAT_ID   = 21397
ELEMENT_SET_NO = 999
REV_AT_EPOCH   = 86608
BSTAR          = .18661E-3
MEAN_MOTION_DOT = .2669E-4
MEAN_MOTION_DDOT = 0

CCSDS_OMM_VERS = 2.0
CREATION_DATE  = 
ORIGINATOR     = 

OBJECT_NAME    = COSMOS 2151
OBJECT_ID      = 1991-042A
CENTER_NAME    = EARTH
REF_FRAME      = TEME
TIME_SYSTEM    = UTC
MEAN_ELEMENT_THEORY = SGP/SGP4

EPOCH          = 2026-03-17T03:41:52.789344
MEAN_MOTION    = 15.00137297
ECCENTRICITY   = .0013459
INCLINATION    = 82.4929
RA_OF_ASC_NODE = 76.4732
ARG_OF_PERICENTER = 40.8247
MEAN_ANOMALY   = 319.3982

EPHEMERIS_TYPE = 0
CLASSIFICATION_TYPE = U
NORAD_CAT_ID   = 21422
ELEMENT_SET_NO = 999
REV_AT_EPOCH   = 86431
BSTAR          = .1488E-3
MEAN_MOTION_DOT = .1886E-4
MEAN_MOTION_DDOT = 0

CCSDS_OMM_VERS = 2.0
CREATION_DATE  = 
ORIGINATOR     = 

OBJECT_NAME    = SL-14 R/B
OBJECT_ID      = 1991-042B
CENTER_NAME    = EARTH
REF_FRAME      = TEME
TIME_SYSTEM    = UTC
MEAN_ELEMENT_THEORY = SGP/SGP4

EPOCH          = 2026-03-17T02:49:58.294848
MEAN_MOTION    = 14.81837504
ECCENTRICITY   = .0016239
INCLINATION    = 82.4937
RA_OF_ASC_NODE = 213.2168
ARG_OF_PERICENTER = 212.5659
MEAN_ANOMALY   = 147.4555

EPHEMERIS_TYPE = 0
CLASSIFICATION_TYPE = U
NORAD_CAT_ID   = 21423
ELEMENT_SET_NO = 999
REV_AT_EPOCH   = 85417
BSTAR          = .53927E-4
MEAN_MOTION_DOT = .45E-5
MEAN_MOTION_DDOT = 0

